[{"OBJECT_NAME":"COSMO-SKYMED 2","OBJECT_ID":"2007-059A","EPOCH":"2026-03-09T23:42:47.291040","MEAN_MOTION":14.82166446,"ECCENTRICITY":0.00012683,"INCLINATION":97.8865,"RA_OF_ASC_NODE":254.0198,"ARG_OF_PERICENTER":84.565,"MEAN_ANOMALY":275.5708,"EPHEMERIS_TYPE":0,"CLASSIFICATION_TYPE":"U","NORAD_CAT_ID":32376,"ELEMENT_SET_NO":999,"REV_AT_EPOCH":98730,"BSTAR":9.1071047e-5,"MEAN_MOTION_DOT":6.73e-6,"MEAN_MOTION_DDOT":0},{"OBJECT_NAME":"SL-14 R\/B","OBJECT_ID":"1985-009B","EPOCH":"2026-03-09T12:31:38.807616","MEAN_MOTION":14.86118469,"ECCENTRICITY":0.00177921,"INCLINATION":82.5198,"RA_OF_ASC_NODE":79.0201,"ARG_OF_PERICENTER":243.1549,"MEAN_ANOMALY":116.7849,"EPHEMERIS_TYPE":0,"CLASSIFICATION_TYPE":"U","NORAD_CAT_ID":15495,"ELEMENT_SET_NO":999,"REV_AT_EPOCH":20162,"BSTAR":6.1904017e-5,"MEAN_MOTION_DOT":5.68e-6,"MEAN_MOTION_DDOT":0}]
